LPNTSAT-001 (IOD-1)     
1 68408U 26065A   26107.64644824  .00001734  00000+0  87535-4 0  9995
2 68408  97.4099 349.4201 0016122 210.2902 149.7402 15.18333868  3070
LPNTSAT-002 (IOD-2)     
1 68409U 26065B   26107.64585017  .00004071  00000+0  20054-3 0  9993
2 68409  97.4087 349.4181 0013259 204.5317 155.5288 15.18449680  3054
XINZHENGCHENG-01        
1 68412U 26066A   26109.26787561  .00000388  00000+0  38343-4 0  9994
2 68412  84.9629 265.2282 0027634  98.2671 262.1688 14.88353596  2965
TRANSPORTER-16 OBJECT A 
1 68416U 26067A   26107.81943879  .00005196  00000+0  25381-3 0  9993
2 68416  97.4505  67.2087 0004046 107.6321 252.5355 15.18682962  2783
JACK-002                
1 68417U 26067B   26107.82014455  .00004920  00000+0  24097-3 0  9991
2 68417  97.4526  67.2120 0003892 109.6101 250.5554 15.18618492  2787
OPTISAT                 
1 68418U 26067C   26107.82099188  .00003240  00000+0  16026-3 0  9995
2 68418  97.4543  67.2154 0003854 121.0306 239.1307 15.18519250  2788
TRANSPORTER-16 OBJECT D 
1 68419U 26067D   26107.82084407  .00001960  00000+0  98232-4 0  9991
2 68419  97.4500  67.2061 0003430 101.1674 258.9946 15.18529535  2781
ERMIS-2                 
1 68420U 26067E   26107.82054536  .00007174  00000+0  34959-3 0  9991
2 68420  97.4448  67.1953 0003630  91.8754 268.2896 15.18633539  2787
TRANSPORTER-16 OBJECT F 
1 68421U 26067F   26107.82293218  .00003173  00000+0  15777-3 0  9996
2 68421  97.4475  67.1980 0002935  93.6919 266.4651 15.18349018  2783
TRANSPORTER-16 OBJECT G 
1 68422U 26067G   26108.54826257  .00005434  00000+0  26795-3 0  9996
2 68422  97.4442  67.9033 0002843  89.3181 270.8379 15.18333514  2898
TRANSPORTER-16 OBJECT H 
1 68423U 26067H   26107.82398045  .00003853  00000+0  19130-3 0  9994
2 68423  97.4463  67.1936 0002556 100.5629 259.5893 15.18272825  2780
TRANSPORTER-16 OBJECT J 
1 68424U 26067J   26107.89626128  .00004253  00000+0  21397-3 0  9991
2 68424  97.4481  67.2538 0000462 175.4240 184.6999 15.17757049  2795
ERMIS-3                 
1 68425U 26067K   26107.82500587  .00003652  00000+0  18195-3 0  9999
2 68425  97.4547  67.2110 0002421 130.6704 229.4741 15.18188949  2780
TRANSPORTER-16 OBJECT L 
1 68426U 26067L   26108.61419939  .00010532  00000+0  51439-3 0  9991
2 68426  97.4512  67.9838 0002641 131.8939 228.2521 15.18439278  2905
